Match_type,Ref_ID,ID1,Id,SchoolId,Name,Address,City,Zipcode,Contact,PhoneNumbe,YearBuilt,NumStories,Cost,NumStudent,BackupPowe,ShelterCap,Latitude,Longitude,Comment,X,Y,NumStudent12,CampusHous,NumStudents13,URL,Address2013,shape_wkt,POINT_X,POINT_Y
NCES,0,"Fruit St, Boston, Massachusetts 02114-2696",98627,431594,Massachusetts General Hospital Dietetic Internship,"Fruit St, Boston, Massachusetts 02114",West End,365190,MASS GEN EYE * EAR INF,(617) 726-2589,1899,13,106836600.000000000000000,10.000000000000000,0.000000000000000, ,42.362590650000001,-71.070140719999998,0300381001,772340.999867019942030,2957450.000055599957705,, ,20.000000000000000,N/A,,POINT (-71.070140721999962 42.362590658000045),-71.070140721999962,42.362590658000045
NCES & Consortium,0,"8 Ashburton Place, Boston, Massachusetts 02108-27*",11959,168005,Suffolk University,"8 Ashburton Pl Beacon Hill, Boston, Massachusetts 02108",Boston,149016,SUFFOLK UNIVERSITY TRSTS OF,(617) 573-8000,1899,12,21673500.000000000000000,9148.000000000000000,0.000000000000000, ,42.358904850000002,-71.061948099999995,0302802001,774562.025936770020053,2956118.084412349853665,9101.000000000000000,21%,8675.000000000000000,http://www.suffolk.edu,,POINT (-71.061948105999988 42.358904851000034),-71.061948105999988,42.358904851000034
NCES & Consortium,0,"41 Berkeley St, Boston, Massachusetts 02116",16632,165884,Benjamin Franklin Institute of Technology,"41 Berkeley St, Boston, Massachusetts 02116",South End,78750,CITY OF BOSTON,(617) 423-4630,1920,4,15975800.000000000000000,594.000000000000000,0.000000000000000, ,42.346102709999997,-71.070186460000002,0500688000,772358.914857440046035,2951441.413975690025836,472.000000000000000, ,482.000000000000000,http://www.bfit.edu,,POINT (-71.070186465999939 42.346102717000065),-71.070186465999939,42.346102717000065
NCES & Consortium,0,"250 New Rutherford Ave, Boston, Massachusetts 021*",1949,165112,Bunker Hill Community College,"250 New Rutherford Ave, Boston, Massachusetts 02129",Charlestown,203509,COMMONWEALTH OF MASS,(617) 228-2000,1899,4,17181400.000000000000000,11009.000000000000000,0.000000000000000, ,42.375116540000000,-71.069571650000000,0202170000,772471.759776100050658,2962015.466646439861506,12934.000000000000000, ,14023.000000000000000,http://www.bhcc.mass.edu,,POINT (-71.069571657999973 42.37511655000003),-71.069571657999973,42.375116550000030
NCES & Consortium,0,"36 1st Avenue, Boston, Massachusetts 02129-4557",9109,166869,MGH Institute of Health Professions,"36 1st Avenue, Boston, Massachusetts 02129",Charlestown,70077,MGH INSTITUTE OF HEALTH,(617) 726-3140,1899,3.5,9386500.000000000000000,900.000000000000000,0.000000000000000, ,42.374917050000001,-71.053971739999994,0203504000,776687.321226850035600,2961964.424425689969212,928.000000000000000, ,1096.000000000000000,http://www.mghihp.edu,,POINT (-71.053971740999941 42.374917058000051),-71.053971740999941,42.374917058000051
NCES & Consortium,0,"400 The Fenway, Boston, Massachusetts 02115",86640,165671,Emmanuel College,"400 Fenway, Massachusetts 02115",Fenway/Kenmore,52212,EMMANUEL COLLEGE TRUSTEES,(617) 735-9715,1899,3,99370400.000000000000000,2454.000000000000000,0.000000000000000, ,42.341516329999997,-71.103477949999998,0401847000,763367.006004019989632,2949726.454151019919664,2519.000000000000000,48%,2436.000000000000000,http://www.emmanuel.edu,,POINT (-71.10347795399997 42.341516334000062),-71.103477953999970,42.341516334000062
NCES & Consortium,0,"230 The Fenway, Boston, Massachusetts 02115-5596",86302,166984,School of the Museum of Fine Arts-Boston,"230 The Fenway, Boston, Massachusetts 02115",Fenway/Kenmore,113496,MUSEUM OF FINE ARTS,(617) 267-6100,1987,3,8437121.000000000000000,754.000000000000000,0.000000000000000, ,42.338537930000001,-71.096693619999996,0401806000,765206.276931770029478,2948649.670871519949287,747.000000000000000,14%,651.000000000000000,http://www.smfa.edu,,POINT (-71.096693628999958 42.338537939000048),-71.096693628999958,42.338537939000048
NCES & Consortium,0,"300 The Fenway, Boston, Massachusetts 02115-5898",86125,167783,Simmons,"300 Fenway, Boston, Massachusetts 02115",Fenway/Kenmore,240740,SIMMONS COLLEGE,(617) 521-2000,1976,4,55553100.000000000000000,5003.000000000000000,0.000000000000000, ,42.339187330000001,-71.099939899999995,0401842000,764327.496537100058049,2948882.188123019877821,4829.000000000000000,75%,4900.000000000000000,http://www.simmons.edu,,POINT (-71.099939904999985 42.339187331000062),-71.099939904999985,42.339187331000062
NCES & Consortium,0,"One Silber Way, Boston, Massachusetts 02215",15422,164988,Boston University,"One Silber Way, Boston, Massachusetts 02215",Fenway/Kenmore,593154,BOSTON UNIVERSITY TRSTS OF,(617) 353-2000,1996,8,66943300.000000000000000,31960.000000000000000,0.000000000000000, ,42.349559749999997,-71.099709309999994,0503991000,764372.100778599968180,2952662.391192520037293,32439.000000000000000,74%,32411.000000000000000,http://www.bu.edu,,POINT (-71.09970931099997 42.349559758000055),-71.099709310999970,42.349559758000055
NCES & Consortium,0,"8 the Fenway, Boston, Massachusetts 02215",22285,164933,The Boston Conservatory,"8 Fenway, Boston, Massachusetts 02215",Fenway/Kenmore,35350,BOSTON CONSERVATRY MUSIC,(617) 536-6340,1899,6,4900600.000000000000000,682.000000000000000,0.000000000000000, ,42.346058220000003,-71.090011329999996,0401795000,766999.744801520020701,2951398.816291850060225,710.000000000000000,29%,774.000000000000000,http://www.bostonconservatory.edu,,POINT (-71.090011329999982 42.346058223000057),-71.090011329999982,42.346058223000057
NCES,0,"200 Riverway, Boston, Massachusetts 02215-4176",86683,168290,Wheelock College,"200 the Riverway, Boston, Massachusetts 02215",Fenway/Kenmore,75256,WHEELOCK SCHOOL,(617) 734-5200,1925,3,11614900.000000000000000,1055.000000000000000,0.000000000000000, ,42.341740000000001,-71.106420000000000,0402011000,762571.248737270012498,2949804.278470439836383,1285.000000000000000,70%,1378.000000000000000,http://www.wheelock.edu,,POINT (-71.106419999999957 42.341740000000073),-71.106419999999957,42.341740000000073
NCES,0,"1234 Columbus Ave, Roxbury Crossing, Massachusett*",89176,167631,Roxbury Community College,"1234 Columbus Ave, Roxbury Crossing, Massachusetts 02120",Roxbury,144812,BOARD OF REGENTS OF,(617) 427-0060,1986,5,30893400.000000000000000,2749.000000000000000,0.000000000000000, ,42.329235349999998,-71.095494410000001,1100029000,765546.574807600001805,2945261.173711520154029,2744.000000000000000, ,2437.000000000000000,http://www.rcc.mass.edu,,POINT (-71.095494419999966 42.329235350000033),-71.095494419999966,42.329235350000033
NCES & Consortium,0,"100 Morrissey Boulevard, Boston, Massachusetts 02*",91520,166638,University of Massachusetts-Boston,"100 Morrissey Blvd, Boston, Massachusetts 02125",North Dorchester,264200,COMMONWEALTH OF MASS,(617) 287-5000,1960,5,195575300.000000000000000,14912.000000000000000,0.000000000000000, ,42.313809350000000,-71.039202160000002,1303400000,780798.454736849991605,2939716.904616349842399,15741.000000000000000, ,16277.000000000000000,http://www.umb.edu,,POINT (-71.039202159999945 42.313809357000025),-71.039202159999945,42.313809357000025
Consortium,0,,15399,0,Boston University Research,771 Commonwealth Ave,Fenway/Kenmore,0,BOSTON UNIVERSITY TRSTS,(617)-353-3696,0,5,1484500.000000000000000,0.000000000000000,0.000000000000000, ,42.350832980000000,-71.109001190000001,2100360000,761858.236711850040592,2953114.729526690207422,,,0.000000000000000,,,POINT (-71.109001192999983 42.350832985000068),-71.109001192999983,42.350832985000068
Consortium,0,,15400,0,Boston University School of Law,1 University Rd,Fenway/Kenmore,54767,BOSTON UNIVERSITY TRSTS,(617)-353-9000,1931,3,5529700.000000000000000,0.000000000000000,0.000000000000000, ,42.351161910000002,-71.109772910000004,2100392000,761649.084571099956520,2953233.643330850172788,,,0.000000000000000,http://www.bu.edu/law/about/overview.html,,POINT (-71.109772913999961 42.35116191700007),-71.109772913999961,42.351161917000070
Consortium,0,,15282,0,Boston University Sargent College,635 Commonwealth Ave,Fenway/Kenmore,85902,BOSTON UNIVERSITY TRS OF,(617)-353-2711,1899,7,19403300.000000000000000,0.000000000000000,0.000000000000000, ,42.349834610000002,-71.102045320000002,0504089000,763740.173892850056291,2952759.598347189836204,,,0.000000000000000,http://www.bu.edu/sargent/about-us/fast-facts/,,POINT (-71.10204532299997 42.349834611000063),-71.102045322999970,42.349834611000063
Consortium,0,,16275,0,Boston University School of Management,595 Commonwealth Ave,Fenway/Kenmore,12908,BOSTON UNIVERSITY TRSTS OF,(617)-353-9720,1960,2,998700.000000000000000,0.000000000000000,0.000000000000000, ,42.349437840000000,-71.098108620000005,0503981000,764804.999847189988941,2952619.999873099848628,,,0.000000000000000,,,POINT (-71.098108624999952 42.349437849000026),-71.098108624999952,42.349437849000026
Consortium,0,,16291,0,Boston University Admissions,121 Bay State Rd,Fenway/Kenmore,13055,BOSTON UNIVERSITY TRSTS,(617)-353-2300,1899,4,2624800.000000000000000,0.000000000000000,0.000000000000000, ,42.350434000000000,-71.098848989999993,0504037000,764603.157731189974584,2952982.074608270078897,,,0.000000000000000,,,POINT (-71.098848998999983 42.350434000000064),-71.098848998999983,42.350434000000064
Consortium,0,,16267,0,Boston University Rental Office,19 Deerfield Rd,Fenway/Kenmore,0,BOSTON UNIVERSITY TRSTS OF,(617)-353-4101,1925,4,82800.000000000000000,0.000000000000000,0.000000000000000, ,42.349539989999997,-71.097009999999997,0503757000,765101.799450439983048,2952658.626764350105077,,,0.000000000000000,,,POINT (-71.097009999999955 42.349540000000047),-71.097009999999955,42.349540000000047
Consortium,0,,84599,0,Boston University Trustees,25 Buick Street,Allston/Brighton,122743,BOSTON UNIVERSITY,(617)-353-6500,1990,3,18007000.000000000000000,0.000000000000000,0.000000000000000, ,42.351959999999998,-71.115229990000003,2100400000,760172.676106599974446,2953517.779573599807918,,,0.000000000000000,,,POINT (-71.115229998999951 42.351960000000076),-71.115229998999951,42.351960000000076
Consortium,0,,17534,0,Boston University School of Medicine,85 East Newton St,South End,262488,COMMWLTH OF MASS,(617)-414-2188,1978,10,72049800.000000000000000,0.000000000000000,0.000000000000000, ,42.336387639999998,-71.070969660000003,0801408000,772164.999890940031037,2947900.000126770231873,,,0.000000000000000,,,POINT (-71.070969668999965 42.336387649000073),-71.070969668999965,42.336387649000073
Consortium,0,,17638,0,Boston University Public Health,715 Albany St,South End,82563,BOSTON UNIVERSITY TRSTS OF,(617)-638-4935,1899,5,13981647.000000000000000,0.000000000000000,0.000000000000000, ,42.335319349999999,-71.071623950000003,0801418000,771990.054374690051191,2947509.804712940007448,,,0.000000000000000,http://www.bu.edu/sph/about/busph-at-a-glance/,,POINT (-71.071623957999975 42.335319353000045),-71.071623957999975,42.335319353000045
Consortium,0, ,14097,164924,Boston College,"140 Commonwealth Avenue, Chestnut Hill, Massachusetts 02467",Chestnut Hill,, , ,0, ,0.000000000000000,15036.000000000000000,0.000000000000000, ,42.333832639999997,-71.169719250000000, ,745469.510303020011634,2946850.066203020047396,14754.000000000000000, ,14309.000000000000000, ,,POINT (-71.169719254999961 42.333832643000051),-71.169719254999961,42.333832643000051
Consortium,0,"300 The Fenway, Boston, Massachusetts 02115-5898",86676,0,Simmons College,94 Pilgrim Rd.,Fenway/Kenmore,48601,SIMMONS FEMALE COLLEGE,(617)-521-1101,1899,2,21821300.000000000000000,0.000000000000000,0.000000000000000, ,42.341050340000002,-71.105895630000006,0402012000,762714.170367439975962,2949553.608696190174669,, ,4655.000000000000000,,,POINT (-71.105895638999982 42.341050342000074),-71.105895638999982,42.341050342000074
Consortium,0,"Massachusetts Hall, Cambridge, Massachusetts 02138",98086,0,Harvard Medical School,200 Longwood Ave,Fenway/Kenmore,67821,HARVARD COLLEGE, ,1906,5,522739567.000000000000000,0.000000000000000,0.000000000000000, ,42.336500880000003,-71.102470080000003,0401882000,763647.999864600016735,2947900.000126770231873,27392.000000000000000, ,1732.000000000000000,http://www.hms.harvard.edu,,POINT (-71.10247008999994 42.336500888000046),-71.102470089999940,42.336500888000046
Consortium,0,"Medford, Massachusetts 02155-5555",11753,0,Tufts University School of Medicine,136 Harrison Ave,Chinatown,133416,TUFTS UNIVERSITY TRST, ,1945,8,31126800.000000000000000,0.000000000000000,0.000000000000000, ,42.349800000000002,-71.061489989999998,0305251000,774702.898686520056799,2952800.739012939855456,10777.000000000000000, ,797.000000000000000, ,,POINT (-71.061489998999946 42.349800000000073),-71.061489998999946,42.349800000000073
Consortium,0,,86735,0,MASCO Colleges of the Fenway,375 Longwood Ave,Fenway/Kenmore,399470,CONG ADATH ISRAEL OF BOSTON,(617)-632-2739,1991,7,37257100.000000000000000,0.000000000000000,0.000000000000000, ,42.340040000000002,-71.108309989999995,0401996000,762063.134924100013450,2949182.414228599984199,,,0.000000000000000,,,POINT (-71.108309998999971 42.340040000000045),-71.108309998999971,42.340040000000045
Consortium,0,,79838,0,Harvard University Sailing,Harvard Way,Allston/Brighton,,HARVARD COLLEGE,(617)-495-3434,0, ,831000.000000000000000,0.000000000000000,0.000000000000000, ,42.366432400000001,-71.122926399999997,2200530001,758068.981495099957101,2958782.535120190121233,,,0.000000000000000,,,POINT (-71.122926407999955 42.366432410000073),-71.122926407999955,42.366432410000073
Consortium,0,,79841,0,Harvard Business School,Soldiers Field Rd,Allston/Brighton,92340,HARVARD COLLEGE, ,1975,3,26812300.000000000000000,0.000000000000000,0.000000000000000, ,42.365226989999996,-71.120056120000001,2200480000,758846.614126189961098,2958346.699049599934369,, ,913.000000000000000,http://www.hbs.edu,,POINT (-71.120056120999948 42.365226997000036),-71.120056120999948,42.365226997000036
NCES & Consortium,0,"10 High St Ste 204, Boston, Massachusetts 02110",12255,164438,New England College of Business and Finance,"10 High St, Boston, Massachusetts 02110",Financial District,127396,POWER JOHN F,(617) 951-2350,1920,11,12889200.000000000000000,765.000000000000000,0.000000000000000, ,42.353529999999999,-71.056730000000002,0304211000,775982.526704689953476,2954166.671976599842310,1319.000000000000000, ,1145.000000000000000,http://www.finance.edu,,POINT (-71.056729999999959 42.353530000000035),-71.056729999999959,42.353530000000035
NCES,0,"150 North Street, Boston, Massachusetts 02109",9019,167297,North Bennet Street School,"39 North Bennet St, Boston, Massachusetts 02113",North End,33790,NO BENNETT ST IND SCHL,(617) 227-0155,1899,4,5845800.000000000000000,144.000000000000000,0.000000000000000, ,42.365890000000000,-71.054779999999994,0302292000,776486.095907520037144,2958673.640652940142900,151.000000000000000, ,161.000000000000000,http://www.nbss.org,,POINT (-71.054779999999937 42.365890000000036),-71.054779999999937,42.365890000000036
NCES,0,,12435,164845,Empire Beauty School-Boston,"30 West Street, Boston, Massachusetts 02111",Financial District,25175,CHENG HUNG TS, ,1899,5,1618800.000000000000000,205.000000000000000,0.000000000000000, ,42.354849999999999,-71.062370000000001,0304817000,774455.580283520044759,2954639.833103769924492,280.000000000000000, ,241.000000000000000, ,,POINT (-71.062369999999987 42.354850000000056),-71.062369999999987,42.354850000000056
NCES & Consortium,0,"178 Tremont St 7th Fl, Boston, Massachusetts 0211*",11884,429128,Urban College of Boston,"178 Tremont St, Boston, Massachusetts 02111",Financial District,63096,ACTION FOR BOSTON COMMUNITY,(617) 292-4723,1899,10,4285100.000000000000000,617.000000000000000,0.000000000000000, ,42.352889990000001,-71.064079989999996,0304884000,773997.031659940024838,2953923.204615769907832,562.000000000000000, ,762.000000000000000,http://www.urbancollege.edu,,POINT (-71.064079998999944 42.352890000000059),-71.064079998999944,42.352890000000059
NCES & Consortium,0,"122 Commonwealth Avenue, Boston, Massachusetts 02*",14049,164641,Bay State College,"122 Commonwealth Avenue, Boston, Massachusetts 02116",Back Bay,10182,PFANNENSTIEHL FREDERICK G TS,(617) 236-8000,1899,4,832000.000000000000000,753.000000000000000,0.000000000000000, ,42.351769990000001,-71.076939999999993,0501353000,770522.991692019975744,2953497.551923769991845,1225.000000000000000,19%,1204.000000000000000,http://www.baystate.edu,,POINT (-71.076939999999979 42.351770000000045),-71.076939999999979,42.351770000000045
NCES,0, ,13825,165149,Butera School Of Art,"111 Beacon St, Boston, Massachusetts 02116",Back Bay,8520,BUTERA JOSEPH L,(617) 536-4623,1899,5,594700.000000000000000,23.000000000000000,0.000000000000000, ,42.354979999999998,-71.073160000000001,0502814000,771538.891891189967282,2954672.428511019796133,, ,0.000000000000000,http://www.buteraschool.com,,POINT (-71.073159999999973 42.354980001000058),-71.073159999999973,42.354980001000058
NCES & Consortium,0,"120 Boylston Street, Boston, Massachusetts 02116-*",14326,165662,Emerson College,"120 Boylston Street, Boston, Massachusetts 02116",Beacon Hill,0,EMERSON COLLEGE,(617) 824-8500,0, ,4545500.000000000000000,4556.000000000000000,0.000000000000000, ,42.352219380000001,-71.065735779999997,0500043010,773550.717591939959675,2953676.536145850084722,4469.000000000000000,48%,4561.000000000000000,http://www.emerson.edu,,POINT (-71.065735780999944 42.352219383000033),-71.065735780999944,42.352219383000033
NCES & Consortium,0,"118 Beacon Street, Boston, Massachusetts 02116",13866,165802,Fisher College,"118 Beacon Street, Boston, Massachusetts 02116",Back Bay,21600,FISHER SCHOOL,(617) 236-8800,1899,5,280651.000000000000000,1593.000000000000000,0.000000000000000, ,42.355249999999998,-71.074140000000000,0502574000,771273.514797269948758,2954769.497542600147426,1821.000000000000000,40%,1930.000000000000000,http://www.fisher.edu,,POINT (-71.074140000999932 42.355250000000069),-71.074140000999932,42.355250000000069
NCES & Consortium,0,"126 Newbury Street, Boston, Massachusetts 02116",14004,166276,Sanford-Brown College-Boston,"126 Newbury Street, Boston, Massachusetts 02116",Back Bay,52830,BEEKMAN TOWN HOUSE LLC,(617) 578-7100,1920,6,5200400.000000000000000,158.000000000000000,0.000000000000000, ,42.351004000000003,-71.076415999999995,0501320000,770666.017980769975111,2953219.109895349945873,, ,71.000000000000000,http://www.gibbscollege.com,,POINT (-71.076415999999938 42.351004000000046),-71.076415999999938,42.351004000000046
NCES & Consortium,0,"154 Stuart St, Boston, Massachusetts 02116",13000,167215,New England School of Law,"154 Stuart St, Boston, Massachusetts 02116",Beacon Hill,65429,NEW ENGLAND SCHOOL OF LAW,(617) 451-0010,1899,5,8714400.000000000000000,1096.000000000000000,0.000000000000000, ,42.350770279999999,-71.066424510000004,0500077000,773367.236003519967198,2953147.510957189835608,, ,964.000000000000000,http://www.nesl.edu,,POINT (-71.066424509999933 42.350770287000046),-71.066424509999933,42.350770287000046
NCES,0,,2262,167543,Kaplan Career Institute (Closed),"570 Rutherford Ave, Charlestown, Massachusetts 02129",Charlestown,606500,HOOD BUSINESS PARK LLC,(617) 580-4010,1920,3,16958900.000000000000000,619.000000000000000,0.000000000000000, ,42.381010000000003,-71.072446990000003,0202161000,771684.060892189969309,2964159.257962519768625,,,0.000000000000000,,,POINT (-71.072446999999954 42.38101000000006),-71.072446999999954,42.381010000000060
NCES & Consortium,0,"320 Newbury Street, Boston, Massachusetts 02115-2*",15443,164872,Boston Architectural College,"320 Newbury Street, Boston, Massachusetts 02115",Back Bay,42344,BOSTON ARCHITECTURAL COLLEGE,(617) 262-5000,1899,6,11385900.000000000000000,1406.000000000000000,0.000000000000000, ,42.348460000000003,-71.085800000000006,0503062000,768133.942992439959198,2952279.570107770152390,1215.000000000000000, ,1037.000000000000000,http://www.the-bac.edu,,POINT (-71.085799999999949 42.348460000000046),-71.085799999999949,42.348460000000046
NCES & Consortium,0,"621 Huntington Ave, Boston, Massachusetts 02115-5*",86503,166674,Massachusetts College of Art and Design,"621 Huntington Ave, Boston, Massachusetts 02115",Fenway/Kenmore,217791,COMMWLTH OF MASS,(617) 879-7000,1900,6,65800100.000000000000000,2422.000000000000000,0.000000000000000, ,42.336383730000001,-71.100340419999995,0401841000,764224.000024940003641,2947859.999878690112382,2422.000000000000000,28%,2264.000000000000000,http://www.massart.edu,,POINT (-71.100340422999977 42.336383740000031),-71.100340422999977,42.336383740000031
NCES & Consortium,0,"179 Longwood Ave, Boston, Massachusetts 02115-5896",86582,166656,MCPHS University,"179 Longwood Ave, Boston, Massachusetts 02115",Fenway/Kenmore,104000,MASS COLLEGE OF PHARMACY,(617) 732-2800,1917,4,87531900.000000000000000,4252.000000000000000,0.000000000000000, ,42.336880000000001,-71.101119999999995,0401844000,764012.378729020012543,2948039.859755190089345,5327.000000000000000,17%,6548.000000000000000,http://www.mcp.edu,,POINT (-71.10112000099997 42.336880000000065),-71.101120000999970,42.336880000000065
NCES & Consortium,0,"424 Beacon St, Boston, Massachusetts 02115",15908,167093,New England College of Optometry,"424 Beacon St, Boston, Massachusetts 02115",Back Bay,17037,NEW ENGLAND COLLEGE,(617) 266-2030,1900,5,5568600.000000000000000,467.000000000000000,0.000000000000000, ,42.351849989999998,-71.086809990000006,0503507000,767854.936004520044662,2953513.627022849861532,475.000000000000000, ,502.000000000000000,http://www.neco.edu,,POINT (-71.086809998999968 42.35185000000007),-71.086809998999968,42.351850000000070
NCES & Consortium,0,"360 Huntington Ave, Boston, Massachusetts 02115-5*",23123,167358,Northeastern University,"360 Huntington Ave, Boston, Massachusetts 02115",Fenway/Kenmore,142900,NORTHEASTERN UNIVERSITY,(617) 373-2000,1899,3,426358800.000000000000000,27537.000000000000000,0.000000000000000, ,42.340047900000002,-71.088891590000003,0402236000,767313.000080520054325,2949210.000131439883262,26959.000000000000000, ,8479.000000000000000,http://www.northeastern.edu,,POINT (-71.088891592999971 42.340047903000027),-71.088891592999971,42.340047903000027
NCES & Consortium,0,"290 Huntington Ave, Boston, Massachusetts 02115-5*",22925,167057,The New England Conservatory of Music,"290 Huntington Ave, Boston, Massachusetts 02115",Fenway/Kenmore,0,NEW ENGLAND CONS OF MUSIC,(617) 585-1100,0,4,299000.000000000000000,785.000000000000000,0.000000000000000, ,42.341092990000000,-71.086445999999995,0402246000,767972.333079440053552,2949594.048904019873589,775.000000000000000,40%,813.000000000000000,http://www.newenglandconservatory.edu,,POINT (-71.086446000999956 42.341093000000058),-71.086446000999956,42.341093000000058
NCES & Consortium,0,"550 Huntington Ave, Boston, Massachusetts 02115",86223,168227,Wentworth Institute of Technology,"550 Huntington Ave, Boston, Massachusetts 02115",Fenway/Kenmore,236886,WENTWORTH INSTITUTE,(617) 442-9010,1900,3,12929600.000000000000000,3808.000000000000000,0.000000000000000, ,42.336620000000003,-71.094939990000000,0402024000,765683.711344350012951,2947952.985257020220160,3988.000000000000000,41%,4179.000000000000000,http://www.wit.edu,,POINT (-71.094939998999962 42.336620000000039),-71.094939998999962,42.336620000000039
NCES & Consortium,0,"1140 Boylston St, Boston, Massachusetts 02215",23134,164748,Berklee College of Music,"1140 Boylston St, Boston, Massachusetts 02215",Fenway/Kenmore,36300,M B H ASSOCIATES LPS,(617) 266-1400,1899,6,4647300.000000000000000,4145.000000000000000,0.000000000000000, ,42.346689040000001,-71.089011200000002,0401384000,767268.999840439995751,2951629.999884599819779,4307.000000000000000,20%,4519.000000000000000,http://www.berklee.edu,,POINT (-71.089011208999977 42.346689042000037),-71.089011208999977,42.346689042000037
NCES,0,,16255,457013,Kaplan Career Institute (Closed),"540 Commonwealth Ave, Boston, Massachusetts 02215",Fenway/Kenmore,34112,SHUBERT FOUNDATION INC,(617) 695-4103,1899,3,3854600.000000000000000,249.000000000000000,0.000000000000000, ,42.348491989999999,-71.096724989999998,0503938000,765180.645093269995414,2952277.079299100209028,218.000000000000000,,0.000000000000000,,,POINT (-71.096724999999935 42.348492000000078),-71.096724999999935,42.348492000000078
NCES,0,"537 Commonwealth Ave, Boston, Massachusetts 02215",16296,167224,New England School of Photography,"537 Commonwealth Ave, Boston, Massachusetts 02215",Fenway/Kenmore,16500,TRUSTEES OF BOSTON,(617) 437-1868,1923,3,452500.000000000000000,119.000000000000000,0.000000000000000, ,42.349220000000003,-71.096919990000004,0503755000,765126.678993850015104,2952542.127653520088643,98.000000000000000, ,66.000000000000000,http://www.nesop.com,,POINT (-71.096919999999955 42.349220000000059),-71.096919999999955,42.349220000000059
NCES,0, ,98366,16645201,Art Institute of Boston at Lesley University,"700 Beacon St, Boston, Massachusetts 02215",Fenway/Kenmore,37990,ART INSTITUTE OF BOSTON,(617) 585-6600,1899,4,7212500.000000000000000,0.000000000000000,0.000000000000000, ,42.348499990000001,-71.099369990000000,0504144000,764465.635696519981138,2952276.625231769867241,,27%,0.000000000000000,http://www.aiboston.edu,,POINT (-71.099369999999965 42.348500000000058),-71.099369999999965,42.348500000000058
NCES & Consortium,0,"303 Adams Street, Milton, Massachusetts 02186",59172,165264,Laboure College,"2120 Dorchester Ave, Boston, Massachusetts 02124",South Dorchester,282494,NEW CARITAS CHRISTI HOSPITAL,(617) 296-8300,1899,8,51941000.000000000000000,669.000000000000000,0.000000000000000, ,42.277393310000001,-71.065149099999999,1605018000,773848.314109600032680,2926409.521782349795103,732.000000000000000, ,698.000000000000000,http://www.laboure.edu,,POINT (-71.065149104999989 42.277393318000065),-71.065149104999989,42.277393318000065
NCES,0,"1505 Commonwealth Ave, Brighton, Massachusetts 02*",80906,167020,Everest Institute-Brighton,"1505 Commonwealth Ave, Brighton, Massachusetts 02135",Allston/Brighton,63504,COMMEX LLC,(617) 783-9955,1964,5,3189600.000000000000000,700.000000000000000,0.000000000000000, ,42.347110000000001,-71.141540000000006,2101830005,753068.370761440019123,2951719.356661269906908,422.000000000000000, ,369.000000000000000,http://www.bryman-institute.com,,POINT (-71.141539999999964 42.347110000000043),-71.141539999999964,42.347110000000043
NCES,0,"127 Lake Street, Brighton, Massachusetts 02135-38*",88667,167677,Saint John's Seminary,"127 Lake Street, Brighton, Massachusetts 02135",Allston/Brighton,83600,TRUSTEES OF BOSTON COLLEGE,(617) 254-2610,1964,3,1265300.000000000000000,145.000000000000000,0.000000000000000, ,42.344322949999999,-71.163048750000002,2205268070,747258.000164350029081,2950680.000144190154970,183.000000000000000,100%,192.000000000000000,http://www.sjs.edu,,POINT (-71.163048753999988 42.344322960000056),-71.163048753999988,42.344322960000056
NCES,0,"400 Heath St, Chestnut Hill, Massachusetts 02467",90949,167455,Pine Manor College,"400 Heath St, Chestnut Hill, Massachusetts 02467",Jamaica Plain,0,BACK OF THE HILL CONDO TRUST,(617) 731-7000,1999,2.0,0.000000000000000,484.000000000000000,0.000000000000000, ,42.328789989999997,-71.110219990000004,1001487000,761565.489593939972110,2945080.340083689894527,343.000000000000000,73.5%,346.000000000000000,http://www.pmc.edu,,POINT (-71.11021999999997 42.328790000000026),-71.110219999999970,42.328790000000026
NCES & Consortium,0,"One Wells Avenue, Newton, Massachusetts 02459",41509,166717,Massachusetts School of Professional Psychology,"221 Rivermoor St, Boston, Massachusetts 02132",West Roxbury,119454,CITY OF BOSTON,(617) 327-6777,1975,1,5477000.000000000000000,448.000000000000000,0.000000000000000, ,42.278892259999999,-71.180351290000004,2009228000,742669.813146520056762,2926817.873327849898487,558.000000000000000, ,652.000000000000000,http://www.mspp.edu,,POINT (-71.180351297999948 42.27889226800005),-71.180351297999948,42.278892268000050
NCES & Consortium,0,"950 Metropolitan Ave, Boston, Massachusetts 02136*",62594,164614,Boston Baptist College,"950 Metropolitan Ave, Boston, Massachusetts 02136",Hyde Park,35206,BOSTON BAPTIST COLLEGE,(617) 364-3510,1899,3,3326900.000000000000000,147.000000000000000,0.000000000000000, ,42.253999989999997,-71.110259990000003,1810945000,761679.207870439975522,2917825.673136440105736,103.000000000000000, ,96.000000000000000,http://www.boston.edu,,POINT (-71.110259999999982 42.254000000000076),-71.110259999999982,42.254000000000076
 ,0, ,164845,164845,Blaine The Beauty Career School-Boston,530 Commonwealth Ave,Boston,02215, ,(508) 370-7447, , ,0.000000000000000,0.000000000000000,0.000000000000000, ,0.000000000000000,0.000000000000000, ,,,, ,0.000000000000000,http://www.blainebeautyschools.com,,POINT (-71.096397626999988 42.34859913300005),-71.096397626999988,42.348599133000050
 ,0, ,167543,167543,Rets Technical Center,965 Commonwealth Ave,Boston,02215, ,(617) 783-1197, , ,0.000000000000000,0.000000000000000,0.000000000000000, ,0.000000000000000,0.000000000000000, ,,,, ,0.000000000000000,http://www.retstech.com,,POINT (-71.119210478999946 42.35200522100007),-71.119210478999946,42.352005221000070
 ,0,, , ,Harvard University of Public Health,677 Huntington Ave, ,02115,HARVARD COLLEGE,(617) 432-1031, ,6,0.000000000000000,0.000000000000000,0.000000000000000, ,0.000000000000000,0.000000000000000,0401895001,,,, ,502.000000000000000,http://www.hsph.harvard.edu/,,POINT (-71.103529949999938 42.33506645500006),-71.103529949999938,42.335066455000060
